URL,School_Name,City,State,Zip
rit.edu,RIT,Rochester,NY,14623
rit.edu/rit_gccis,RIT_GCCIS,Rochester,NY,14988
rit.edu/rit_kate_gleason,RIT_Kate_Gleason,Rochester,NY,14958
rit.edu/rit_saunders,RIT_Saunders,Rochester,NY,20740
rit.edu/rit_liberal arts,RIT_Liberal Arts,Rochester,NY,15956
rit.edu/rit_gccis,RIT_GCCIS,Downtown,NY,16278
rit.edu/rit_kate_gleason,RIT_Kate_Gleason,Downtown,NY,25244
rit.edu/rit_saunders,RIT_Saunders,Downtown,NY,16652
rit.edu/rit_liberal arts,RIT_Liberal Arts,Downtown,NY,19941
rit.edu/rit_gccis,RIT_GCCIS,Suburban,NY,19800
rit.edu/rit_kate_gleason,RIT_Kate_Gleason,Suburban,NY,18370
rit.edu/rit_saunders,RIT_Saunders,Suburban,NY,24707
rit.edu/rit_liberal arts,RIT_Liberal Arts,Suburban,NY,18959
rit.edu/rit_gccis,RIT_GCCIS,Monroe,NY,18210
rit.edu/rit_kate_gleason,RIT_Kate_Gleason,Monroe,NY,17225
rit.edu/rit_saunders,RIT_Saunders,Monroe,NY,24717
rit.edu/rit_liberal arts,RIT_Liberal Arts,Monroe,NY,22150
rit.edu/rit_gccis,RIT_GCCIS,Henrietta,NY,25120
rit.edu/rit_kate_gleason,RIT_Kate_Gleason,Henrietta,NY,19547
rit.edu/rit_saunders,RIT_Saunders,Henrietta,NY,24210
rit.edu/rit_liberal arts,RIT_Liberal Arts,Henrietta,NY,22647
rit.edu/rit_gccis,RIT_GCCIS,Brighton,NY,17846
rit.edu/rit_kate_gleason,RIT_Kate_Gleason,Brighton,NY,24680
rit.edu/rit_saunders,RIT_Saunders,Brighton,NY,14466
rit.edu/rit_liberal arts,RIT_Liberal Arts,Brighton,NY,24420
rit.edu/rit_gccis,RIT_GCCIS,Rochester,MI,20673
rit.edu/rit_kate_gleason,RIT_Kate_Gleason,Rochester,MI,24682
rit.edu/rit_saunders,RIT_Saunders,Rochester,MI,18333
rit.edu/rit_liberal arts,RIT_Liberal Arts,Rochester,MI,15916
rit.edu/rit_gccis,RIT_GCCIS,Downtown,MI,25518
rit.edu/rit_kate_gleason,RIT_Kate_Gleason,Downtown,MI,14967
rit.edu/rit_saunders,RIT_Saunders,Downtown,MI,23864
rit.edu/rit_liberal arts,RIT_Liberal Arts,Downtown,MI,15476
rit.edu/rit_gccis,RIT_GCCIS,Suburban,MI,17203
rit.edu/rit_kate_gleason,RIT_Kate_Gleason,Suburban,MI,24858
rit.edu/rit_saunders,RIT_Saunders,Suburban,MI,25206
rit.edu/rit_liberal arts,RIT_Liberal Arts,Suburban,MI,16709
rit.edu/rit_gccis,RIT_GCCIS,Monroe,MI,23738
rit.edu/rit_kate_gleason,RIT_Kate_Gleason,Monroe,MI,15983
rit.edu/rit_saunders,RIT_Saunders,Monroe,MI,14714
rit.edu/rit_liberal arts,RIT_Liberal Arts,Monroe,MI,23774
rit.edu/rit_gccis,RIT_GCCIS,Henrietta,MI,25322
rit.edu/rit_kate_gleason,RIT_Kate_Gleason,Henrietta,MI,19844
rit.edu/rit_saunders,RIT_Saunders,Henrietta,MI,23729
rit.edu/rit_liberal arts,RIT_Liberal Arts,Henrietta,MI,14234
rit.edu/rit_gccis,RIT_GCCIS,Brighton,MI,19613
rit.edu/rit_kate_gleason,RIT_Kate_Gleason,Brighton,MI,25375
rit.edu/rit_saunders,RIT_Saunders,Brighton,MI,24158
rit.edu/rit_liberal arts,RIT_Liberal Arts,Brighton,MI,23525
rit.edu/rit_gccis,RIT_GCCIS,Rochester,NJ,14622
rit.edu/rit_kate_gleason,RIT_Kate_Gleason,Rochester,NJ,19809
rit.edu/rit_saunders,RIT_Saunders,Rochester,NJ,22239
rit.edu/rit_liberal arts,RIT_Liberal Arts,Rochester,NJ,19690
rit.edu/rit_gccis,RIT_GCCIS,Downtown,NJ,19570
rit.edu/rit_kate_gleason,RIT_Kate_Gleason,Downtown,NJ,16141
rit.edu/rit_saunders,RIT_Saunders,Downtown,NJ,21641
rit.edu/rit_liberal arts,RIT_Liberal Arts,Downtown,NJ,14989
rit.edu/rit_gccis,RIT_GCCIS,Suburban,NJ,19578
rit.edu/rit_kate_gleason,RIT_Kate_Gleason,Suburban,NJ,21478
rit.edu/rit_saunders,RIT_Saunders,Suburban,NJ,20702
rit.edu/rit_liberal arts,RIT_Liberal Arts,Suburban,NJ,14181
rit.edu/rit_gccis,RIT_GCCIS,Monroe,NJ,19915
rit.edu/rit_kate_gleason,RIT_Kate_Gleason,Monroe,NJ,15406
rit.edu/rit_saunders,RIT_Saunders,Monroe,NJ,22380
rit.edu/rit_liberal arts,RIT_Liberal Arts,Monroe,NJ,22467
rit.edu/rit_gccis,RIT_GCCIS,Henrietta,NJ,22605
rit.edu/rit_kate_gleason,RIT_Kate_Gleason,Henrietta,NJ,21861
rit.edu/rit_saunders,RIT_Saunders,Henrietta,NJ,23714
rit.edu/rit_liberal arts,RIT_Liberal Arts,Henrietta,NJ,24306
rit.edu/rit_gccis,RIT_GCCIS,Brighton,NJ,14349
rit.edu/rit_kate_gleason,RIT_Kate_Gleason,Brighton,NJ,21929
rit.edu/rit_saunders,RIT_Saunders,Brighton,NJ,19768
rit.edu/rit_liberal arts,RIT_Liberal Arts,Brighton,NJ,23887
rit.edu/rit_gccis,RIT_GCCIS,Rochester,MA,21675
rit.edu/rit_kate_gleason,RIT_Kate_Gleason,Rochester,MA,18934
rit.edu/rit_saunders,RIT_Saunders,Rochester,MA,25466
rit.edu/rit_liberal arts,RIT_Liberal Arts,Rochester,MA,14198
rit.edu/rit_gccis,RIT_GCCIS,Downtown,MA,21958
rit.edu/rit_kate_gleason,RIT_Kate_Gleason,Downtown,MA,16822
rit.edu/rit_saunders,RIT_Saunders,Downtown,MA,23156
rit.edu/rit_liberal arts,RIT_Liberal Arts,Downtown,MA,21452
rit.edu/rit_gccis,RIT_GCCIS,Suburban,MA,15532
rit.edu/rit_kate_gleason,RIT_Kate_Gleason,Suburban,MA,25321
rit.edu/rit_saunders,RIT_Saunders,Suburban,MA,25457
rit.edu/rit_liberal arts,RIT_Liberal Arts,Suburban,MA,21220
rit.edu/rit_gccis,RIT_GCCIS,Monroe,MA,25371
rit.edu/rit_kate_gleason,RIT_Kate_Gleason,Monroe,MA,14669
rit.edu/rit_saunders,RIT_Saunders,Monroe,MA,16229
rit.edu/rit_liberal arts,RIT_Liberal Arts,Monroe,MA,18766
rit.edu/rit_gccis,RIT_GCCIS,Henrietta,MA,19555
rit.edu/rit_kate_gleason,RIT_Kate_Gleason,Henrietta,MA,25121
rit.edu/rit_saunders,RIT_Saunders,Henrietta,MA,21870
rit.edu/rit_liberal arts,RIT_Liberal Arts,Henrietta,MA,22829
rit.edu/rit_gccis,RIT_GCCIS,Brighton,MA,17591
rit.edu/rit_kate_gleason,RIT_Kate_Gleason,Brighton,MA,24308
rit.edu/rit_saunders,RIT_Saunders,Brighton,MA,23500
rit.edu/rit_liberal arts,RIT_Liberal Arts,Brighton,MA,16613
rit.edu/rit_gccis,RIT_GCCIS,Rochester,VA,24674
rit.edu/rit_kate_gleason,RIT_Kate_Gleason,Rochester,VA,19738
rit.edu/rit_saunders,RIT_Saunders,Rochester,VA,15918
rit.edu/rit_liberal arts,RIT_Liberal Arts,Rochester,VA,23392
rit.edu/rit_gccis,RIT_GCCIS,Downtown,VA,25936
rit.edu/rit_kate_gleason,RIT_Kate_Gleason,Downtown,VA,22250
rit.edu/rit_saunders,RIT_Saunders,Downtown,VA,15277
rit.edu/rit_liberal arts,RIT_Liberal Arts,Downtown,VA,17309
rit.edu/rit_gccis,RIT_GCCIS,Suburban,VA,18927
rit.edu/rit_kate_gleason,RIT_Kate_Gleason,Suburban,VA,14520
rit.edu/rit_saunders,RIT_Saunders,Suburban,VA,25982
rit.edu/rit_liberal arts,RIT_Liberal Arts,Suburban,VA,20423
rit.edu/rit_gccis,RIT_GCCIS,Monroe,VA,15385
rit.edu/rit_kate_gleason,RIT_Kate_Gleason,Monroe,VA,15844
rit.edu/rit_saunders,RIT_Saunders,Monroe,VA,25174
rit.edu/rit_liberal arts,RIT_Liberal Arts,Monroe,VA,16393
rit.edu/rit_gccis,RIT_GCCIS,Henrietta,VA,15377
rit.edu/rit_kate_gleason,RIT_Kate_Gleason,Henrietta,VA,15956
rit.edu/rit_saunders,RIT_Saunders,Henrietta,VA,22326
rit.edu/rit_liberal arts,RIT_Liberal Arts,Henrietta,VA,22803
rit.edu/rit_gccis,RIT_GCCIS,Brighton,VA,15999
rit.edu/rit_kate_gleason,RIT_Kate_Gleason,Brighton,VA,24209
rit.edu/rit_saunders,RIT_Saunders,Brighton,VA,15974
rit.edu/rit_liberal arts,RIT_Liberal Arts,Brighton,VA,25676
rit.edu/rit_gccis,RIT_GCCIS,Rochester,WA,14690
rit.edu/rit_kate_gleason,RIT_Kate_Gleason,Rochester,WA,22323
rit.edu/rit_saunders,RIT_Saunders,Rochester,WA,14600
rit.edu/rit_liberal arts,RIT_Liberal Arts,Rochester,WA,23989
rit.edu/rit_gccis,RIT_GCCIS,Downtown,WA,20822
rit.edu/rit_kate_gleason,RIT_Kate_Gleason,Downtown,WA,21331
rit.edu/rit_saunders,RIT_Saunders,Downtown,WA,20558
rit.edu/rit_liberal arts,RIT_Liberal Arts,Downtown,WA,17276
rit.edu/rit_gccis,RIT_GCCIS,Suburban,WA,20523
rit.edu/rit_kate_gleason,RIT_Kate_Gleason,Suburban,WA,18811
rit.edu/rit_saunders,RIT_Saunders,Suburban,WA,14660
rit.edu/rit_liberal arts,RIT_Liberal Arts,Suburban,WA,20376
rit.edu/rit_gccis,RIT_GCCIS,Monroe,WA,25123
rit.edu/rit_kate_gleason,RIT_Kate_Gleason,Monroe,WA,14601
rit.edu/rit_saunders,RIT_Saunders,Monroe,WA,21144
rit.edu/rit_liberal arts,RIT_Liberal Arts,Monroe,WA,18791
rit.edu/rit_gccis,RIT_GCCIS,Henrietta,WA,19551
rit.edu/rit_kate_gleason,RIT_Kate_Gleason,Henrietta,WA,19633
rit.edu/rit_saunders,RIT_Saunders,Henrietta,WA,19900
rit.edu/rit_liberal arts,RIT_Liberal Arts,Henrietta,WA,17969
rit.edu/rit_gccis,RIT_GCCIS,Brighton,WA,20797
rit.edu/rit_kate_gleason,RIT_Kate_Gleason,Brighton,WA,18606
rit.edu/rit_saunders,RIT_Saunders,Brighton,WA,25187
rit.edu/rit_liberal arts,RIT_Liberal Arts,Brighton,WA,18709
rit.edu/rit_gccis,RIT_GCCIS,Rochester,DC,14753
rit.edu/rit_kate_gleason,RIT_Kate_Gleason,Rochester,DC,14650
rit.edu/rit_saunders,RIT_Saunders,Rochester,DC,16559
rit.edu/rit_liberal arts,RIT_Liberal Arts,Rochester,DC,23580
rit.edu/rit_gccis,RIT_GCCIS,Downtown,DC,23739
rit.edu/rit_kate_gleason,RIT_Kate_Gleason,Downtown,DC,22445
rit.edu/rit_saunders,RIT_Saunders,Downtown,DC,15726
rit.edu/rit_liberal arts,RIT_Liberal Arts,Downtown,DC,20999
rit.edu/rit_gccis,RIT_GCCIS,Suburban,DC,18921
rit.edu/rit_kate_gleason,RIT_Kate_Gleason,Suburban,DC,17808
rit.edu/rit_saunders,RIT_Saunders,Suburban,DC,17702
rit.edu/rit_liberal arts,RIT_Liberal Arts,Suburban,DC,16351
rit.edu/rit_gccis,RIT_GCCIS,Monroe,DC,18556
rit.edu/rit_kate_gleason,RIT_Kate_Gleason,Monroe,DC,15546
rit.edu/rit_saunders,RIT_Saunders,Monroe,DC,14348
rit.edu/rit_liberal arts,RIT_Liberal Arts,Monroe,DC,25718
rit.edu/rit_gccis,RIT_GCCIS,Henrietta,DC,15379
rit.edu/rit_kate_gleason,RIT_Kate_Gleason,Henrietta,DC,16125
rit.edu/rit_saunders,RIT_Saunders,Henrietta,DC,24936
rit.edu/rit_liberal arts,RIT_Liberal Arts,Henrietta,DC,14876
rit.edu/rit_gccis,RIT_GCCIS,Brighton,DC,22233
rit.edu/rit_kate_gleason,RIT_Kate_Gleason,Brighton,DC,18923
rit.edu/rit_saunders,RIT_Saunders,Brighton,DC,16130
rit.edu/rit_liberal arts,RIT_Liberal Arts,Brighton,DC,18582
rit.edu/rit_gccis,RIT_GCCIS,Rochester,TX,16272
rit.edu/rit_kate_gleason,RIT_Kate_Gleason,Rochester,TX,18504
rit.edu/rit_saunders,RIT_Saunders,Rochester,TX,21618
rit.edu/rit_liberal arts,RIT_Liberal Arts,Rochester,TX,14651
rit.edu/rit_gccis,RIT_GCCIS,Downtown,TX,17972
rit.edu/rit_kate_gleason,RIT_Kate_Gleason,Downtown,TX,17205
rit.edu/rit_saunders,RIT_Saunders,Downtown,TX,23314
rit.edu/rit_liberal arts,RIT_Liberal Arts,Downtown,TX,23437
rit.edu/rit_gccis,RIT_GCCIS,Suburban,TX,14145
rit.edu/rit_kate_gleason,RIT_Kate_Gleason,Suburban,TX,14142
rit.edu/rit_saunders,RIT_Saunders,Suburban,TX,21351
rit.edu/rit_liberal arts,RIT_Liberal Arts,Suburban,TX,20156
rit.edu/rit_gccis,RIT_GCCIS,Monroe,TX,25629
rit.edu/rit_kate_gleason,RIT_Kate_Gleason,Monroe,TX,18702
rit.edu/rit_saunders,RIT_Saunders,Monroe,TX,19642
rit.edu/rit_liberal arts,RIT_Liberal Arts,Monroe,TX,25853
rit.edu/rit_gccis,RIT_GCCIS,Henrietta,TX,20383
rit.edu/rit_kate_gleason,RIT_Kate_Gleason,Henrietta,TX,19134
rit.edu/rit_saunders,RIT_Saunders,Henrietta,TX,23192
rit.edu/rit_liberal arts,RIT_Liberal Arts,Henrietta,TX,24870
rit.edu/rit_gccis,RIT_GCCIS,Brighton,TX,24890
rit.edu/rit_kate_gleason,RIT_Kate_Gleason,Brighton,TX,23381
rit.edu/rit_saunders,RIT_Saunders,Brighton,TX,25749
rit.edu/rit_liberal arts,RIT_Liberal Arts,Brighton,TX,18924
rit.edu/rit_gccis,RIT_GCCIS,Rochester,MN,20756
rit.edu/rit_kate_gleason,RIT_Kate_Gleason,Rochester,MN,18964
rit.edu/rit_saunders,RIT_Saunders,Rochester,MN,24891
rit.edu/rit_liberal arts,RIT_Liberal Arts,Rochester,MN,19508
rit.edu/rit_gccis,RIT_GCCIS,Downtown,MN,18942
rit.edu/rit_kate_gleason,RIT_Kate_Gleason,Downtown,MN,22603
rit.edu/rit_saunders,RIT_Saunders,Downtown,MN,25468
rit.edu/rit_liberal arts,RIT_Liberal Arts,Downtown,MN,23284
rit.edu/rit_gccis,RIT_GCCIS,Suburban,MN,18621
rit.edu/rit_kate_gleason,RIT_Kate_Gleason,Suburban,MN,15129
rit.edu/rit_saunders,RIT_Saunders,Suburban,MN,21354
rit.edu/rit_liberal arts,RIT_Liberal Arts,Suburban,MN,19674
rit.edu/rit_gccis,RIT_GCCIS,Monroe,MN,22746
rit.edu/rit_kate_gleason,RIT_Kate_Gleason,Monroe,MN,25208
rit.edu/rit_saunders,RIT_Saunders,Monroe,MN,21628
rit.edu/rit_liberal arts,RIT_Liberal Arts,Monroe,MN,25851
rit.edu/rit_gccis,RIT_GCCIS,Henrietta,MN,18653
rit.edu/rit_kate_gleason,RIT_Kate_Gleason,Henrietta,MN,15542
rit.edu/rit_saunders,RIT_Saunders,Henrietta,MN,15547
rit.edu/rit_liberal arts,RIT_Liberal Arts,Henrietta,MN,15379
rit.edu/rit_gccis,RIT_GCCIS,Brighton,MN,21462
rit.edu/rit_kate_gleason,RIT_Kate_Gleason,Brighton,MN,18311
rit.edu/rit_saunders,RIT_Saunders,Brighton,MN,19761
rit.edu/rit_liberal arts,RIT_Liberal Arts,Brighton,MN,15428
rit.edu/rit_gccis,RIT_GCCIS,Rochester,AZ,22359
rit.edu/rit_kate_gleason,RIT_Kate_Gleason,Rochester,AZ,18961
rit.edu/rit_saunders,RIT_Saunders,Rochester,AZ,23761
rit.edu/rit_liberal arts,RIT_Liberal Arts,Rochester,AZ,17433
rit.edu/rit_gccis,RIT_GCCIS,Downtown,AZ,22292
rit.edu/rit_kate_gleason,RIT_Kate_Gleason,Downtown,AZ,22916
rit.edu/rit_saunders,RIT_Saunders,Downtown,AZ,17353
rit.edu/rit_liberal arts,RIT_Liberal Arts,Downtown,AZ,16929
rit.edu/rit_gccis,RIT_GCCIS,Suburban,AZ,19583
rit.edu/rit_kate_gleason,RIT_Kate_Gleason,Suburban,AZ,22683
rit.edu/rit_saunders,RIT_Saunders,Suburban,AZ,14570
rit.edu/rit_liberal arts,RIT_Liberal Arts,Suburban,AZ,21422
rit.edu/rit_gccis,RIT_GCCIS,Monroe,AZ,16810
rit.edu/rit_kate_gleason,RIT_Kate_Gleason,Monroe,AZ,21885
rit.edu/rit_saunders,RIT_Saunders,Monroe,AZ,24511
rit.edu/rit_liberal arts,RIT_Liberal Arts,Monroe,AZ,24881
rit.edu/rit_gccis,RIT_GCCIS,Henrietta,AZ,19630
rit.edu/rit_kate_gleason,RIT_Kate_Gleason,Henrietta,AZ,21420
rit.edu/rit_saunders,RIT_Saunders,Henrietta,AZ,18865
rit.edu/rit_liberal arts,RIT_Liberal Arts,Henrietta,AZ,16730
rit.edu/rit_gccis,RIT_GCCIS,Brighton,AZ,20835
rit.edu/rit_kate_gleason,RIT_Kate_Gleason,Brighton,AZ,23130
rit.edu/rit_saunders,RIT_Saunders,Brighton,AZ,18915
rit.edu/rit_liberal arts,RIT_Liberal Arts,Brighton,AZ,21428
rit.edu/rit_gccis,RIT_GCCIS,Rochester,CA,15728
rit.edu/rit_kate_gleason,RIT_Kate_Gleason,Rochester,CA,17749
rit.edu/rit_saunders,RIT_Saunders,Rochester,CA,15316
rit.edu/rit_liberal arts,RIT_Liberal Arts,Rochester,CA,25213
rit.edu/rit_gccis,RIT_GCCIS,Downtown,CA,16744
rit.edu/rit_kate_gleason,RIT_Kate_Gleason,Downtown,CA,23365
rit.edu/rit_saunders,RIT_Saunders,Downtown,CA,19420
rit.edu/rit_liberal arts,RIT_Liberal Arts,Downtown,CA,21313
rit.edu/rit_gccis,RIT_GCCIS,Suburban,CA,18989
rit.edu/rit_kate_gleason,RIT_Kate_Gleason,Suburban,CA,25269
rit.edu/rit_saunders,RIT_Saunders,Suburban,CA,17458
rit.edu/rit_liberal arts,RIT_Liberal Arts,Suburban,CA,15817
rit.edu/rit_gccis,RIT_GCCIS,Monroe,CA,20637
rit.edu/rit_kate_gleason,RIT_Kate_Gleason,Monroe,CA,19664
rit.edu/rit_saunders,RIT_Saunders,Monroe,CA,20736
rit.edu/rit_liberal arts,RIT_Liberal Arts,Monroe,CA,16219
rit.edu/rit_gccis,RIT_GCCIS,Henrietta,CA,25511
rit.edu/rit_kate_gleason,RIT_Kate_Gleason,Henrietta,CA,25132
rit.edu/rit_saunders,RIT_Saunders,Henrietta,CA,25416
rit.edu/rit_liberal arts,RIT_Liberal Arts,Henrietta,CA,23154
rit.edu/rit_gccis,RIT_GCCIS,Brighton,CA,25195
rit.edu/rit_kate_gleason,RIT_Kate_Gleason,Brighton,CA,16563
rit.edu/rit_saunders,RIT_Saunders,Brighton,CA,14964
rit.edu/rit_liberal arts,RIT_Liberal Arts,Brighton,CA,25372
